FALCON 9 DEB            
1 52652U 22052BG  22153.57435023  .00204680  27624-4  49023-3 0  9999
2 52652  53.2068 344.9543 0015044 318.0341  41.9535 15.95954191  2987
FALCON 9 DEB            
1 52653U 22052BH  22153.55968413  .00236887  33780-4  51896-3 0  9997
2 52653  53.2083 344.8632 0011397 310.2594  49.7439 15.97622272  2987
FALCON 9 DEB            
1 52654U 22052BJ  22153.55437322  .00543582  13785-3  11280-2 0  9995
2 52654  53.2109 344.8333 0008793 320.7633  39.2760 15.98521156  2982
STARLINK-4004           
1 52656U 22053A   22152.83334491 -.00116873  00000+0 -83704-3 0  9995
2 52656  53.2153 226.5844 0002184  22.0778  40.4454 15.73276456  1308
STARLINK-4084           
1 52657U 22053B   22152.83334491 -.00008521  00000+0 -56294-4 0  9991
2 52657  53.2146 226.5867 0002236  20.6375  40.1239 15.73216677  3399
STARLINK-4082           
1 52658U 22053C   22152.83334491 -.00022389  00000+0 -15551-3 0  9990
2 52658  53.2152 226.5848 0002291  20.8492  41.1668 15.73197764  1300
STARLINK-3960           
1 52659U 22053D   22152.83334491  .00006713  00000+0  52212-4 0  9998
2 52659  53.2148 226.5856 0002291  26.2959  35.0898 15.73201819  1307
STARLINK-4081           
1 52660U 22053E   22152.83334491 -.00110615  00000+0 -79207-3 0  9991
2 52660  53.2154 226.5826 0002224  20.1215  43.0386 15.73256514  1300
STARLINK-4042           
1 52661U 22053F   22152.83334491 -.00157630  00000+0 -11331-2 0  9993
2 52661  53.2148 226.5808 0002088  18.6392  45.2294 15.73335107  1308
STARLINK-4044           
1 52662U 22053G   22152.83334491 -.00099895  00000+0 -71395-3 0  9999
2 52662  53.2151 226.5790 0002312 358.1718  66.7878 15.73256632  1308
STARLINK-4037           
1 52663U 22053H   22152.83334491 -.00092960  00000+0 -66354-3 0  9995
2 52663  53.2150 226.5770 0002310  20.8451  44.6995 15.73256358  1301
STARLINK-4070           
1 52664U 22053J   22152.83334491 -.00022032  00000+0 -15277-3 0  9997
2 52664  53.2151 226.5797 0002298  24.2851  40.0335 15.73226192  1300
STARLINK-4064           
1 52665U 22053K   22152.83334491 -.00006035  00000+0 -38620-4 0  9991
2 52665  53.2147 226.5711 0001937  30.6060  37.3416 15.73191512  1300
STARLINK-4079           
1 52666U 22053L   22152.83334491 -.00095957  00000+0 -68562-3 0  9990
2 52666  53.2146 226.5762 0001926  27.0767  39.0973 15.73247839  1309
STARLINK-4076           
1 52667U 22053M   22152.83334491 -.00090223  00000+0 -64390-3 0  9997
2 52667  53.2147 226.5702 0002164  27.0901  41.4418 15.73248578  1302
STARLINK-4067           
1 52668U 22053N   22152.83334491 -.00005531  00000+0 -35016-4 0  9990
2 52668  53.2145 226.5742 0002193  19.7290  47.0563 15.73190297  1303
STARLINK-3972           
1 52669U 22053P   22152.83334491 -.00093947  00000+0 -67098-3 0  9993
2 52669  53.2147 226.5663 0002134  20.5081  49.8082 15.73247859  1304
STARLINK-4075           
1 52670U 22053Q   22152.83334491 -.00005382  00000+0 -33933-4 0  9993
2 52670  53.2148 226.5731 0002160  25.7720  41.5904 15.73202008  1308
STARLINK-4071           
1 52671U 22053R   22152.83334491 -.00015604  00000+0 -10697-3 0  9993
2 52671  53.2144 226.5648 0002225  20.3561  50.5772 15.73193673  1308
STARLINK-4073           
1 52672U 22053S   22152.83334491 -.00110932  00000+0 -79462-3 0  9999
2 52672  53.2148 226.5696 0002219  21.8966  47.2570 15.73249454  1302
STARLINK-3976           
1 52673U 22053T   22152.83334491  .00001162  00000+0  12710-4 0  9996
2 52673  53.2146 226.5621 0002274 350.4156  81.7217 15.73185067  1302
STARLINK-3936           
1 52674U 22053U   22152.83334491  .00000623  00000+0  88698-5 0  9997
2 52674  53.2148 226.5681 0002622 335.8550  93.9105 15.73197209  1305
STARLINK-3934           
1 52675U 22053V   22152.83334491 -.00101751  00000+0 -72752-3 0  9996
2 52675  53.2146 226.5595 0002186  27.4911  45.7981 15.73255212  1304
STARLINK-4006           
1 52676U 22053W   22152.83334491 -.00096775  00000+0 -69166-3 0  9991
2 52676  53.2146 226.5641 0002150  23.6615  47.8815 15.73243945  1306
STARLINK-4028           
1 52677U 22053X   22152.83334491 -.00097447  00000+0 -69637-3 0  9992
2 52677  53.2144 226.5574 0002163  29.2781  45.2202 15.73249800  1308
STARLINK-4074           
1 52678U 22053Y   22152.83334491 -.00118053  00000+0 -84656-3 0  9998
2 52678  53.2146 226.5614 0002217  23.4603  49.2356 15.73251291  1306
STARLINK-4031           
1 52679U 22053Z   22152.83334491 -.00016355  00000+0 -11234-3 0  9993
2 52679  53.2141 226.5529 0002050  18.8898  57.4052 15.73196177  1301
STARLINK-3774           
1 52680U 22053AA  22152.83334491 -.00060209  00000+0 -42709-3 0  9993
2 52680  53.2142 226.5587 0002071  23.7044  50.2414 15.73227349  1308
STARLINK-4068           
1 52681U 22053AB  22152.83334491 -.00121902  00000+0 -87448-3 0  9991
2 52681  53.2143 226.5515 0002305 349.5440  87.3413 15.73256978  1300
STARLINK-4017           
1 52682U 22053AC  22152.83334491 -.00092781  00000+0 -66274-3 0  9998
2 52682  53.2146 226.5562 0002110  27.8112  47.2988 15.73239792  1309
STARLINK-4039           
1 52683U 22053AD  22152.83334491 -.00007010  00000+0 -45549-4 0  9993
2 52683  53.2142 226.5493 0002043  20.7951  57.3258 15.73202761  1305
STARLINK-4014           
1 52684U 22053AE  22152.83334491 -.00005951  00000+0 -37943-4 0  9995
2 52684  53.2143 226.5548 0002253  27.7393  47.8664 15.73231260  1309
STARLINK-4029           
1 52685U 22053AF  22152.83334491 -.00096487  00000+0 -68958-3 0  9999
2 52685  53.2141 226.5456 0001952  23.1993  56.6853 15.73244089  1308
STARLINK-4005           
1 52686U 22053AG  22152.83334491 -.00020888  00000+0 -14473-3 0  9995
2 52686  53.2143 226.5511 0002150  28.5264  48.9626 15.73203225  2584
STARLINK-3981           
1 52687U 22053AH  22152.83334491 -.00111476  00000+0 -79848-3 0  9997
2 52687  53.2143 226.5441 0002195  27.2421  53.2190 15.73252850  1309
STARLINK-4032           
1 52688U 22053AJ  22152.83334491 -.00009220  00000+0 -61353-4 0  9994
2 52688  53.2142 226.5487 0002010  24.5012  54.1662 15.73193398  1306
STARLINK-4078           
1 52689U 22053AK  22152.83334491 -.00076159  00000+0 -54208-3 0  9990
2 52689  53.2138 226.5405 0002111  25.3179  56.9070 15.73242219  1307
STARLINK-4035           
1 52690U 22053AL  22152.83334491 -.00116476  00000+0 -83495-3 0  9999
2 52690  53.2156 226.5471 0002101  27.0631  52.2031 15.73254292  1303
STARLINK-3945           
1 52691U 22053AM  22152.83334491 -.00006411  00000+0 -41291-4 0  9996
2 52691  53.2140 226.5392 0002073  21.9458  60.9078 15.73196285  1301
STARLINK-3993           
1 52692U 22053AN  22152.83334491 -.00105413  00000+0 -75341-3 0  9991
2 52692  53.2142 226.5434 0002168  27.9901  52.9783 15.73279343  1306
STARLINK-3946           
1 52693U 22053AP  22152.83334491 -.00000614  00000+0  52181-7 0  9999
2 52693  53.2161 226.5363 0002160  26.9244  57.1382 15.73195065  1300
STARLINK-4072           
1 52694U 22053AQ  22152.83334491 -.00094047  00000+0 -67184-3 0  9999
2 52694  53.2141 226.5421 0002215  27.1060  54.5683 15.73242870  1306
STARLINK-4041           
1 52695U 22053AR  22152.83334491 -.00108697  00000+0 -77824-3 0  9999
2 52695  53.2139 226.5337 0002157  19.6173  65.6396 15.73251982  1304
STARLINK-4025           
1 52696U 22053AS  22152.83334491 -.00106918  00000+0 -76536-3 0  9993
2 52696  53.2141 226.5380 0002149  22.8759  60.5892 15.73249192  1308
STARLINK-4018           
1 52697U 22053AT  22152.83334491 -.00105784  00000+0 -75712-3 0  9999
2 52697  53.2160 226.5314 0001982  28.0944  58.3294 15.73249175  1307
STARLINK-4030           
1 52698U 22053AU  22152.83334491 -.00006101  00000+0 -39018-4 0  9993
2 52698  53.2141 226.5358 0001916  26.0443  58.5239 15.73229751  1303
STARLINK-3987           
1 52699U 22053AV  22152.83334491  .00005792  00000+0  45657-4 0  9993
2 52699  53.2160 226.5287 0002049  28.6961  58.9550 15.73204380  1308
STARLINK-4034           
1 52700U 22053AW  22152.83334491 -.00009212  00000+0 -61291-4 0  9991
2 52700  53.2138 226.5336 0002096  31.2223  54.5953 15.73192399  1309
STARLINK-4003           
1 52701U 22053AX  22152.83334491 -.00108255  00000+0 -77387-3 0  9991
2 52701  53.2160 226.5262 0002072  19.5798  69.1800 15.73286845  2587
STARLINK-4033           
1 52702U 22053AY  22152.83334491 -.00096731  00000+0 -69133-3 0  9997
2 52702  53.2140 226.5306 0002036  21.5854  65.4311 15.73244786  1304
STARLINK-4020           
1 52703U 22053AZ  22152.83334491 -.00090360  00000+0 -64518-3 0  9992
2 52703  53.2156 226.5232 0001878  24.8237  65.7858 15.73239581  1300
STARLINK-3999           
1 52704U 22053BA  22152.83334491  .00002032  00000+0  18892-4 0  9995
2 52704  53.2161 226.5279 0002059  30.1367  58.0543 15.73210461  1306
STARLINK-3844           
1 52705U 22053BB  22152.83334491 -.00002451  00000+0 -13049-4 0  9992
2 52705  53.2155 226.5236 0001827  22.9542  67.0479 15.73188650  1301
STARLINK-3970           
1 52706U 22053BC  22152.83334491 -.00112001  00000+0 -80154-3 0  9996
2 52706  53.2139 226.5256 0002131  27.0227  62.3303 15.73275499  1303
STARLINK-4007           
1 52707U 22053BD  22152.83334491 -.00115778  00000+0 -82908-3 0  9990
2 52707  53.2157 226.5213 0002176  21.6876  69.4262 15.73275613  1306
STARLINK-3962           
1 52708U 22053BE  22152.83334491 -.00105571  00000+0 -75514-3 0  9996
2 52708  53.2160 226.5206 0002013  33.1629  58.6203 15.73262202  1302
FALCON 9 DEB            
1 52709U 22053BF  22153.47749241  .00161826  21036-4  45356-3 0  9992
2 52709  53.2041 222.1257 0014091 339.2482  20.7973 15.93140385  3513
FALCON 9 DEB            
1 52710U 22053BG  22153.47306055  .00175065  22837-4  47167-3 0  9998
2 52710  53.2040 222.0981 0015186 348.8035  11.2654 15.93824024  3513
FALCON 9 DEB            
1 52711U 22053BH  22153.58717039  .00195858  26103-4  48827-3 0  9995
2 52711  53.2061 221.3888 0011298 356.4540   3.6407 15.95327633  3530
